CELTEE 1                
1 41850U 16067C   18134.19910637  .00000647  00000-0  61795-4 0  9990
2 41850  97.9240 221.9603 0007060 278.8370  81.2051 14.96802009 82019
OPTICUBE 04             
1 41851U 16067D   18133.82679105 -.00000233  00000-0 -15069-4 0  9998
2 41851  97.9228 221.5074 0007702 281.6703  78.3654 14.96656793 81954
AEROCUBE 8D             
1 41852U 16067E   18134.19386325  .00000816  00000-0  77209-4 0  9998
2 41852  97.9247 221.7262 0007982 279.2943  80.7375 14.96476294 81993
AEROCUBE 8C             
1 41853U 16067F   18133.80599082  .00000229  00000-0  25539-4 0  9999
2 41853  97.9248 221.2990 0008457 283.2735  76.7542 14.96441987 81936
PROMETHEUS 2-1          
1 41854U 16067G   18134.21590508 -.00000024  00000-0  32652-5 0  9999
2 41854  97.9251 221.7151 0008952 281.0157  79.0057 14.96534109 81991
PROMETHEUS 2-3          
1 41855U 16067H   18134.21847568 -.00000043  00000-0  15793-5 0  9999
2 41855  97.9253 221.7212 0009179 281.2348  78.7841 14.96530738 81999
ITF-2                   
1 41932U 98067KU  18133.92132062  .00033069  00000-0  22779-3 0  9991
2 41932  51.6343 157.1564 0005500  51.9922 308.1573 15.74280220 75369
WASEDA-SAT3             
1 41933U 98067KV  18133.90037544  .00053490  00000-0  28944-3 0  9999
2 41933  51.6332 151.6352 0005448  47.6950 312.4512 15.79524212 75432
AOBA-VELOX 3            
1 41935U 98067KX  18133.50908924  .00043027  00000-0  25662-3 0  9995
2 41935  51.6352 155.8496 0005528  50.2242 309.9244 15.77448640 75446
INS-1B                  
1 41954U 17008G   18134.15489742  .00001643  00000-0  72995-4 0  9996
2 41954  97.4485 198.4024 0011121 110.0873 250.1562 15.22916773 68824
BGUSAT                  
1 41999U 17008BD  18133.90012744  .00002731  00000-0  11408-3 0  9991
2 41999  97.4529 199.1057 0010124 126.1383 234.0793 15.24445646 68209
DIDO-2                  
1 42000U 17008BE  18133.90396568  .00001263  00000-0  56479-4 0  9991
2 42000  97.4503 198.5669 0010074 126.5420 233.6746 15.23125235 68185
PEASSS                  
1 42015U 17008BV  18133.90046530  .00001538  00000-0  66570-4 0  9996
2 42015  97.4499 198.9795 0007865 131.1588 229.0329 15.23923585 68696
AL-FARABI 1             
1 42016U 17008BW  18133.90215643  .00001985  00000-0  84103-4 0  9998
2 42016  97.4507 199.1542 0007817 131.3752 228.8159 15.24315815 68827
NAYIF-1 (EO-88)         
1 42017U 17008BX  18133.89694267  .00001960  00000-0  83004-4 0  9992
2 42017  97.4505 199.1552 0007787 131.6080 228.5826 15.24338846 68849
HAVELSAT                
1 42700U 98067LH  18134.10172477  .00026913  00000-0  22822-3 0  9999
2 42700  51.6345 168.8697 0003938  90.2119 269.9329 15.69459333 56660
CXBN-2                  
1 42704U 98067LM  18134.11375062  .00025901  00000-0  22344-3 0  9994
2 42704  51.6350 169.7135 0003570  35.0340 325.0891 15.69066222 56571
ICECUBE                 
1 42705U 98067LN  18134.18070109  .00047369  00000-0  29973-3 0  9993
2 42705  51.6424 163.4744 0004653  50.4036 309.7375 15.76069512 56723
PHOENIX                 
1 42706U 98067LP  18134.08484675  .00019271  00000-0  17585-3 0  9997
2 42706  51.6347 170.2648 0002546  37.9818 322.1357 15.67893488 56551
X-CUBESAT               
1 42707U 98067LQ  18134.15652199  .00029464  00000-0  24475-3 0  9995
2 42707  51.6314 168.4315 0003044  33.4372 326.6817 15.69910126 56579
QBEE50-LTU-OC           
1 42708U 98067LR  18134.14951623  .00026692  00000-0  22918-3 0  9999
2 42708  51.6350 169.1799 0002882  36.0055 324.1136 15.69164774 56522
ALTAIR PATHFINDER       
1 42711U 98067LS  18134.13512918  .00013747  00000-0  15081-3 0  9992
2 42711  51.6354 175.8585 0004726  46.2544 313.8842 15.63541651 56146
SHARC                   
1 42712U 98067LT  18134.13001200  .00021388  00000-0  23688-3 0  9992
2 42712  51.6371 177.3751 0003646  43.9496 316.1788 15.62923723 56360
ZA-AEROSAT              
1 42713U 98067LU  18134.14931769  .00017745  00000-0  17077-3 0  9993
2 42713  51.6339 172.1850 0003545  33.3312 326.7906 15.66634250 56194
LINK                    
1 42714U 98067LV  18134.19831251  .00057196  00000-0  35601-3 0  9991
2 42714  51.6260 163.3876 0005441  26.8091 333.3189 15.76358655 56422
CSUNSAT 1               
1 42715U 98067LW  18134.18029020  .00021506  00000-0  20184-3 0  9990
2 42715  51.6349 171.6600 0005149  36.8680 323.2669 15.67105976 56201
SPACECUBE               
1 42717U 98067LY  18134.17480492  .00027180  00000-0  23357-3 0  9994
2 42717  51.6328 169.3360 0003026  77.8789 282.2547 15.69132906 55601
HOOPOE                  
1 42718U 98067LZ  18134.13207316  .00033884  00000-0  26524-3 0  9990
2 42718  51.6339 167.5538 0003276  65.7398 294.3941 15.71262796 55628
CHALLENGER              
1 42721U 98067MA  18134.15958754  .00080827  00000-0  40620-3 0  9997
2 42721  51.6274 160.1100 0006421  54.9047 305.2556 15.80969519 55429
NJUST-1                 
1 42722U 98067MB  18134.19037445  .00018850  00000-0  18730-3 0  9991
2 42722  51.6350 173.2257 0005697  87.8763 272.2885 15.65772866 55256
UNSW-ECO                
1 42723U 98067MC  18134.08265278  .00037679  00000-0  28772-3 0  9994
2 42723  51.6359 167.9998 0005240  72.8308 287.3263 15.71791871 55296
LILACSAT-1              
1 42725U 98067ME  18134.15461662  .00022563  00000-0  20494-3 0  9998
2 42725  51.6348 171.4821 0004748  81.2927 278.8607 15.67884930 55172
NSIGHT-1                
1 42726U 98067MF  18134.13392260  .00007898  00000-0  98066-4 0  9999
2 42726  51.6377 178.8968 0005599  98.5019 261.6609 15.61041547 55081
SNUSAT-1                
1 42727U 98067MG  18134.16429037  .00024213  00000-0  22031-3 0  9994
2 42727  51.6329 171.5013 0007156  56.1328 304.0349 15.67779690 55147
I-INSPIRE II            
1 42731U 98067ML  18134.15134623  .00037030  00000-0  27670-3 0  9997
2 42731  51.6327 166.8945 0007127  42.2428 317.9118 15.72299927 55093
POLYITAN-2-SAU          
1 42732U 98067MM  18134.15748769  .00028889  00000-0  24175-3 0  9999
2 42732  51.6338 169.2141 0006984  43.4078 316.7468 15.69720764 55061
SNUSAT-1B               
1 42733U 98067MN  18134.21377432  .00024193  00000-0  21475-3 0  9996
2 42733  51.6343 170.3545 0006964  46.7792 313.3785 15.68390435 55057
EXALTA-1                
1 42734U 98067MP  18134.14559883  .00043163  00000-0  31538-3 0  9990
2 42734  51.6307 166.8374 0007251  59.6586 300.5128 15.72755036 55047
BEEAGLESAT              
1 42736U 98067MR  18134.18391702  .00023361  00000-0  21713-3 0  9992
2 42736  51.6339 171.6539 0005951  83.4306 276.7368 15.67285112 55093
UCLSAT                  
1 42765U 17036A   18134.14883575  .00001518  00000-0  69937-4 0  9992
2 42765  97.4036 194.5422 0011610 187.6749 172.4311 15.21763916 49534
LITUANICASAT-2          
1 42768U 17036D   18133.86595344  .00002554  00000-0  11720-3 0  9994
2 42768  97.4052 193.8833 0015933 180.2752 179.8477 15.21228056 49342
AALTO-1                 
1 42775U 17036L   18133.75108006  .00001020  00000-0  49461-4 0  9996
2 42775  97.4031 193.6986 0014280 178.3473 181.7812 15.20688167 49264
URSA MAIOR              
1 42776U 17036M   18133.87095365  .00001119  00000-0  53841-4 0  9999
2 42776  97.4037 193.8606 0014130 178.0977 182.0315 15.20761907 49280
COMPASS 2               
1 42777U 17036N   18133.94853406  .00002009  00000-0  91883-4 0  9993
2 42777  97.4057 194.2687 0013069 180.4904 179.6321 15.21615874 49308
DIAMOND RED             
1 42783U 17036U   18133.94181151  .00001268  00000-0  59553-4 0  9995
2 42783  97.4038 194.2145 0012179 188.7673 171.3352 15.21383330 49300
PEGASUS                 
1 42784U 17036V   18133.72171812  .00001421  00000-0  66012-4 0  9994
2 42784  97.4040 194.0563 0012073 189.7109 170.3895 15.21575466 49274
DIAMOND GREEN           
1 42785U 17036W   18133.74344255  .00001257  00000-0  59078-4 0  9991
2 42785  97.4040 194.0313 0012036 190.0014 170.0985 15.21385145 49345
DIAMOND BLUE            
1 42786U 17036X   18133.87411903  .00001283  00000-0  60235-4 0  9997
2 42786  97.4040 194.1601 0011896 189.7999 170.3006 15.21385902 49367
NUDTSAT                 
1 42787U 17036Y   18133.91558356  .00002147  00000-0  96623-4 0  9997
2 42787  97.4046 194.4164 0011747 188.0840 172.0208 15.22114998 49159
SUCHAI                  
1 42788U 17036Z   18134.14515614  .00001657  00000-0  75876-4 0  9996
2 42788  97.4040 194.5572 0011786 187.6480 172.4579 15.21831914 49413
SKCUBE                  
1 42789U 17036AA  18133.74928532  .00001543  00000-0  70977-4 0  9990
2 42789  97.4039 194.1650 0011547 189.0420 171.0610 15.21798458 49270
VZLUSAT-1               
1 42790U 17036AB  18133.90538066  .00002148  00000-0  96636-4 0  9991
2 42790  97.4042 194.4143 0011299 188.1980 171.9074 15.22138558 49308
ROBUSTA-1B              
1 42792U 17036AD  18133.91836635  .00001589  00000-0  72691-4 0  9990
2 42792  97.4037 194.3870 0011118 189.2557 170.8476 15.21938206 49314
CICERO 6                
1 42793U 17036AE  18133.90940434  .00001029  00000-0  48323-4 0  9997
2 42793  97.4031 194.3849 0010206 189.6653 170.4388 15.21812107 49389
D-SAT                   
1 42794U 17036AF  18134.14986833  .00000380  00000-0  38505-4 0  9998
2 42794  97.5946 190.0859 0127999  36.1469 324.8317 14.90851101 48657
TOKI                    
1 42820U 98067MU  18133.34201325  .00020298  00000-0  19658-3 0  9995
2 42820  51.6343 178.0388 0004312  24.8379 335.2823 15.66368068 48397
MAZAALAI (NUMSAT-1)     
1 42822U 98067MW  18133.56114886  .00019320  00000-0  18916-3 0  9996
2 42822  51.6345 177.2568 0004277  28.8614 331.2617 15.66132246 48426
BRAC ONNESHA            
1 42823U 98067MX  18134.13328429  .00020704  00000-0  20138-3 0  9998
2 42823  51.6348 174.3424 0006310  50.6119 309.5435 15.66234012 48499
NIGERIAEDUSAT-1         
1 42824U 98067MY  18134.15337518  .00020073  00000-0  19678-3 0  9996
2 42824  51.6353 174.4910 0006179  50.8814 309.2730 15.66060767 48482
